VICTUS HAZE PUMA        
1 69646U 26142A   26195.78469194  .00001975  00000+0  92002-4 0  9995
2 69646  97.4467  93.0928 0025040 267.3590  92.4779 15.20845903  3866
HOKUSHIN-1              
1 69648U 98067YH  26196.16406785  .00015964  00000+0  27703-3 0  9990
2 69648  51.6318 161.3891 0006208 330.3055  29.7582 15.51003832  3995
STARLINK-37656          
1 69649U 26143A   26196.08727718  .00030171  00000+0  55396-3 0  9996
2 69649  97.2845 239.9687 0000699  91.0701 269.0631 15.49206293  4863
STARLINK-37646          
1 69650U 26143B   26196.07814507  .00004561  00000+0  85440-4 0  9998
2 69650  97.2852 240.1363 0000948 345.7107  14.4117 15.49201304  4874
STARLINK-37749          
1 69651U 26143C   26196.08502468  .00017678  00000+0  32587-3 0  9996
2 69651  97.2844 240.1266 0000604 140.3115 219.8181 15.49199456  4871
STARLINK-37819          
1 69652U 26143D   26196.35496895  .00033511  00000+0  61482-3 0  9993
2 69652  97.2848 240.3726 0000785  67.4931 292.6403 15.49207324  4919
STARLINK-37729          
1 69653U 26143E   26196.83335647 -.01549939  00000+0 -80012-2 0  9992
2 69653  97.2817 241.2811 0000980 121.9688 302.1779 15.83801914  5066
STARLINK-37838          
1 69654U 26143F   26196.84209580  .00031612  00000+0  57985-3 0  9995
2 69654  97.2823 240.9325 0001137  86.8360 273.3021 15.49225151  4996
STARLINK-37884          
1 69655U 26143G   26196.55709904  .00028211  00000+0  51804-3 0  9994
2 69655  97.2842 240.5558 0000372   1.3124 358.8128 15.49215639  4944
STARLINK-37876          
1 69656U 26143H   26196.06742311  .00016625  00000+0  30651-3 0  9993
2 69656  97.2843 240.1514 0001464  91.0726 269.0693 15.49205196  4803
STARLINK-37784          
1 69657U 26143J   26196.54965437  .00032296  00000+0  59296-3 0  9991
2 69657  97.2839 240.5667 0001708 113.2323 246.9108 15.49192280  4874
STARLINK-37851          
1 69658U 26143K   26196.13416680  .00015304  00000+0  28236-3 0  9999
2 69658  97.2847 240.2137 0000597  79.3590 280.7728 15.49203934  4813
STARLINK-37229          
1 69659U 26143L   26196.08907269  .00017180  00000+0  31672-3 0  9994
2 69659  97.2846 240.1199 0000895  91.4928 268.6426 15.49202261  4813
STARLINK-37556          
1 69660U 26143M   26196.83335647 -.05289233  00000+0 -14789+0 0  9997
2 69660  97.2849 240.8956 0003410  96.6243 128.3145 15.41659001  5001
STARLINK-37867          
1 69661U 26143N   26196.06984291  .00015267  00000+0  28168-3 0  9995
2 69661  97.2847 240.1489 0001501  80.0224 280.1196 15.49204020  4804
STARLINK-37852          
1 69662U 26143P   26196.55374027  .00033137  00000+0  60771-3 0  9992
2 69662  97.2842 240.5603 0000406  26.7073 333.4199 15.49221145  4873
STARLINK-37554          
1 69663U 26143Q   26196.07929978  .00015676  00000+0  28916-3 0  9994
2 69663  97.2843 240.1336 0001076 107.7041 252.4328 15.49206058  4817
STARLINK-37830          
1 69664U 26143R   26196.54656667  .00028687  00000+0  52690-3 0  9991
2 69664  97.2833 240.5676 0001308  74.2072 285.9323 15.49205988  4871
STARLINK-37837          
1 69665U 26143S   26196.83335647 -.00019120  00000+0 -52825-3 0  9990
2 69665  97.2844 240.8844 0001093  68.3867 143.9424 15.36991533  4960
STARLINK-37943          
1 69666U 26143T   26196.54603242  .00040786  00000+0  74693-3 0  9995
2 69666  97.2849 240.5714 0001165  91.5412 268.5973 15.49218850  4874
STARLINK-37941          
1 69667U 26143U   26196.08125902  .00020596  00000+0  37911-3 0  9996
2 69667  97.2846 240.1313 0000800  82.3411 277.7931 15.49209516  4803
STARLINK-37930          
1 69668U 26143V   26196.08073372  .00007906  00000+0  14696-3 0  9995
2 69668  97.2842 240.1315 0001167 105.2826 254.8555 15.49173111  4803
STARLINK-37945          
1 69669U 26143W   26196.06782453  .00035489  00000+0  65063-3 0  9992
2 69669  97.2842 240.1502 0001176  84.8601 275.2785 15.49216260  4800
STARLINK-37948          
1 69670U 26143X   26196.11572670  .00028739  00000+0  52779-3 0  9998
2 69670  97.2866 240.0861 0001356  48.6006 311.5361 15.49208616  4802
STARLINK-37949          
1 69671U 26143Y   26196.54347065  .00030240  00000+0  55503-3 0  9992
2 69671  97.2843 240.5744 0000157  89.9632 270.1637 15.49215824  4876
STARLINK-37946          
1 69672U 26143Z   26196.07739499  .00020768  00000+0  38229-3 0  9997
2 69672  97.2841 240.1374 0000887  73.6959 286.4389 15.49205965  4804
TJS-26A                 
1 69674U 26144A   26193.29904564 -.00000341  00000+0  00000+0 0  9996
2 69674   6.9538 323.2302 0004208 347.4913 194.6526  1.00274367   198
CZ-7A R/B               
1 69675U 26144B   26196.46018994  .00719164  30041-4  78691-3 0  9999
2 69675  19.4438 314.8996 7091416 196.9524 114.5618  2.60123562   573
STARLINK-38005          
1 69677U 26145A   26196.55787703  .00207084  00000+0  13548-2 0  9992
2 69677  97.2834  43.4092 0001321 345.7590  14.3638 15.75207507  3234
STARLINK-38009          
1 69678U 26145B   26196.81022042  .00183525  00000+0  12014-2 0  9990
2 69678  97.2836  43.6792 0000775  50.1814 309.9519 15.75260352  3276
STARLINK-37998          
1 69679U 26145C   26196.33335648 -.00054361  00000+0 -36633-3 0  9998
2 69679  97.2837  43.1869 0001511  83.3346 108.5358 15.75162566  4458
STARLINK-37994          
1 69680U 26145D   26196.55505182  .00133481  00000+0  88086-3 0  9994
2 69680  97.2832  43.4138 0000643  44.0709 316.0608 15.75216527  3235
STARLINK-37992          
1 69681U 26145E   26196.55470099  .00187147  00000+0  12268-2 0  9999
2 69681  97.2836  43.4135 0000724   3.8713 356.2557 15.75218967  3234
STARLINK-37997          
1 69682U 26145F   26196.83335647 -.00117691  00000+0 -79851-3 0  9991
2 69682  97.2837  43.7083 0001208  93.9761  49.2832 15.75206611  4534
STARLINK-37990          
1 69683U 26145G   26196.83335647 -.00123176  00000+0 -83611-3 0  9996
2 69683  97.2836  43.7066 0001191  78.4470  62.8016 15.75212097  4531
STARLINK-37951          
1 69684U 26145H   26196.55328818  .00135576  00000+0  89471-3 0  9993
2 69684  97.2832  43.4154 0000887   7.7602 352.3677 15.75210076  3237
STARLINK-37957          
1 69685U 26145J   26196.55221912  .00135471  00000+0  89358-3 0  9999
2 69685  97.2828  43.4182 0001253  58.1811 301.9576 15.75221529  3237
STARLINK-37968          
1 69686U 26145K   26196.54623297  .00164819  00000+0  10835-2 0  9992
2 69686  97.2835  43.4268 0000908  32.5094 327.6227 15.75214668  3230
STARLINK-37977          
1 69687U 26145L   26196.54552606  .00146253  00000+0  96339-3 0  9994
2 69687  97.2839  43.4285 0000910  22.4372 337.6933 15.75222047  3239
STARLINK-37908          
1 69688U 26145M   26196.54340860  .00148573  00000+0  97875-3 0  9995
2 69688  97.2834  43.4312 0001319  10.3273 349.8019 15.75213317  3236
STARLINK-37979          
1 69689U 26145N   26196.54305522  .00175536  00000+0  11519-2 0  9991
2 69689  97.2845  43.4315 0000731   8.9679 351.1599 15.75225851  3237
STARLINK-37940          
1 69690U 26145P   26196.54202963 -.00860552  00000+0 -65205-2 0  9990
2 69690  97.2826  43.4321 0003248 236.6285 123.4670 15.74653863  3231
STARLINK-37961          
1 69691U 26145Q   26196.53881941  .00126221  00000+0  83383-3 0  9993
2 69691  97.2830  43.4364 0001444  86.6136 273.5294 15.75212867  3233
STARLINK-37787          
1 69692U 26145R   26196.53670288  .00124508  00000+0  82281-3 0  9996
2 69692  97.2829  43.4396 0001149  67.7661 292.3726 15.75209882  3234
STARLINK-37962          
1 69693U 26145S   26196.53494100  .00144542  00000+0  95280-3 0  9997
2 69693  97.2831  43.4422 0001125  64.5794 295.5587 15.75210378  3236
STARLINK-37953          
1 69694U 26145T   26196.53777788 -.00071397  00000+0 -48428-3 0  9995
2 69694  97.2834  43.4389 0000960 140.1295 220.0040 15.75072706  3233
STARLINK-37926          
1 69695U 26145U   26196.83335647 -.00128812  00000+0 -87455-3 0  9991
2 69695  97.2834  43.7508 0001564  87.7632 151.4724 15.75222413  4534
STARLINK-37959          
1 69696U 26145V   26196.53599769  .00116399  00000+0  77011-3 0  9998
2 69696  97.2832  43.4405 0001037  33.9321 326.2010 15.75206831  3231
STARLINK-37976          
1 69697U 26145W   26196.53317503  .00174769  00000+0  11457-2 0  9999
2 69697  97.2825  43.4447 0000930  98.2106 261.9264 15.75252510  3237
STARLINK-37912          
1 69698U 26145X   26196.53211593  .00156079  00000+0  10256-2 0  9992
2 69698  97.2823  43.4471 0001475 107.1267 253.0160 15.75249504  3232
STARLINK-37974          
1 69699U 26145Y   26196.53140975  .00148380  00000+0  97610-3 0  9994
2 69699  97.2827  43.4477 0001114  84.6899 275.4494 15.75246703  3239
STARLINK-37955          
1 69700U 26145Z   26196.84657685  .00115964  00000+0  76712-3 0  9994
2 69700  97.2830  43.7842 0001391  92.8657 267.2767 15.75211230  3289
STRIX-8                 
1 69701U 26146A   26196.81639590  .00002288  00000+0  17430-3 0  9994
2 69701  41.9903   9.6519 0007086  26.8552 333.2641 15.04437162  2872
ELECTRON R/B            
1 69702U 26146B   26196.80212194  .00417328  62506-4  10176-2 0  9999
2 69702  42.0736 358.9122 0167131  24.6344 336.2381 15.75637069  3008
ELECTRON KICK STAGE R/B 
1 69703U 26146C   26196.74349466  .00002156  00000+0  16288-3 0  9992
2 69703  41.9887   9.9665 0008897  27.4126 332.7169 15.04945952  2864
STARLINK-38055          
1 69704U 26147A   26196.54903400  .00311122  00000+0  15579-2 0  9993
2 69704  97.2820 232.9552 0000593 304.1385  55.9827 15.80953977  3918
STARLINK-37898          
1 69705U 26147B   26196.04180173  .00284363  00000+0  14305-2 0  9995
2 69705  97.2835 232.4215 0001322  83.6910 276.4509 15.80922505  3831
STARLINK-37970          
1 69706U 26147C   26196.04105026  .00260828  00000+0  13162-2 0  9990
2 69706  97.2829 232.4225 0001124 112.0066 248.1322 15.80913938  3834
STARLINK-37975          
1 69707U 26147D   26196.54670654  .00303973  00000+0  15236-2 0  9993
2 69707  97.2829 232.9594 0000304 305.8001  54.3239 15.80950238  3916
STARLINK-37972          
1 69708U 26147E   26196.10284695  .00137961  00000+0  70898-3 0  9990
2 69708  97.2831 232.4913 0000724 112.6643 247.4702 15.80837116  3843
